COSMOS 2151             
1 21422U 91042A   25335.48035225  .00001716  00000+0  13703-3 0  9995
2 21422  82.4965 178.3528 0013504  36.6073 323.6071 14.99621213848470
SL-14 R/B               
1 21423U 91042B   25335.43690005  .00000566  00000+0  68749-4 0  9997
2 21423  82.4918 312.3232 0016449 199.0369 161.0233 14.81721742838522
ERS-1                   
1 21574U 91050A   25335.47543564  .00000410  00000+0  14602-3 0  9990
2 21574  98.7912 346.2484 0032765 132.4872 227.9092 14.39350672801604
ARIANE 40 R/B           
1 21610U 91050F   25335.41311302  .00000436  00000+0  14323-3 0  9996
2 21610  98.2182  26.2517 0003478  32.0954 328.0448 14.42797776804825
INTERCOSMOS 25          
1 21819U 91086A   25335.48964338  .00002694  00000+0  53361-3 0  9999
2 21819  82.6068   9.3794 1487176 328.6662  23.3470 12.11663565484799
SL-8 R/B                
1 21876U 92008B   25335.49093271  .00000181  00000+0  16981-3 0  9993
2 21876  82.9264 340.8145 0035760  50.5602  60.6674 13.75955303695911
SL-8 R/B                
1 21938U 92020B   25335.44352877  .00000068  00000+0  54954-4 0  9998
2 21938  82.9314 226.7049 0028191 210.1235 323.8168 13.75524537687629
USA 81                  
1 21949U 92023A   25335.50715456  .00000220  00000+0  74260-4 0  9998
2 21949  85.0089 188.0539 0001922  63.2462 296.8927 14.32320391 80737
COSMOS 2219             
1 22219U 92076A   25335.40632152 -.00000249  00000+0 -10604-3 0  9991
2 22219  71.0595 223.5234 0018791 342.5367  17.5106 14.14064538704481
SL-16 R/B               
1 22220U 92076B   25335.49895465  .00000137  00000+0  92123-4 0  9991
2 22220  71.0017  35.2104 0015072 248.9501 209.2644 14.16840634707924
COSMOS 2221             
1 22236U 92080A   25335.17743169  .00002461  00000+0  21848-3 0  9998
2 22236  82.5055  13.3921 0015224 157.9946 202.1933 14.95691060766062
SL-16 R/B               
1 22285U 92093B   25335.36602527 -.00000197  00000+0 -76735-4 0  9991
2 22285  71.0203 210.6708 0001945 106.6321 253.5016 14.15425869699243
