CCSDS_OMM_VERS = 2.0
CREATION_DATE  = 
ORIGINATOR     = 

OBJECT_NAME    = COSMOS 2151
OBJECT_ID      = 1991-042A
CENTER_NAME    = EARTH
REF_FRAME      = TEME
TIME_SYSTEM    = UTC
MEAN_ELEMENT_THEORY = SGP/SGP4

EPOCH          = 2025-12-01T11:31:42.434400
MEAN_MOTION    = 14.99621213
ECCENTRICITY   = .0013504
INCLINATION    = 82.4965
RA_OF_ASC_NODE = 178.3528
ARG_OF_PERICENTER = 36.6073
MEAN_ANOMALY   = 323.6071

EPHEMERIS_TYPE = 0
CLASSIFICATION_TYPE = U
NORAD_CAT_ID   = 21422
ELEMENT_SET_NO = 999
REV_AT_EPOCH   = 84847
BSTAR          = .13703E-3
MEAN_MOTION_DOT = .1716E-4
MEAN_MOTION_DDOT = 0

CCSDS_OMM_VERS = 2.0
CREATION_DATE  = 
ORIGINATOR     = 

OBJECT_NAME    = SL-14 R/B
OBJECT_ID      = 1991-042B
CENTER_NAME    = EARTH
REF_FRAME      = TEME
TIME_SYSTEM    = UTC
MEAN_ELEMENT_THEORY = SGP/SGP4

EPOCH          = 2025-12-01T10:29:08.164320
MEAN_MOTION    = 14.81721742
ECCENTRICITY   = .0016449
INCLINATION    = 82.4918
RA_OF_ASC_NODE = 312.3232
ARG_OF_PERICENTER = 199.0369
MEAN_ANOMALY   = 161.0233

EPHEMERIS_TYPE = 0
CLASSIFICATION_TYPE = U
NORAD_CAT_ID   = 21423
ELEMENT_SET_NO = 999
REV_AT_EPOCH   = 83852
BSTAR          = .68749E-4
MEAN_MOTION_DOT = .566E-5
MEAN_MOTION_DDOT = 0

CCSDS_OMM_VERS = 2.0
CREATION_DATE  = 
ORIGINATOR     = 

OBJECT_NAME    = ERS-1
OBJECT_ID      = 1991-050A
CENTER_NAME    = EARTH
REF_FRAME      = TEME
TIME_SYSTEM    = UTC
MEAN_ELEMENT_THEORY = SGP/SGP4

EPOCH          = 2025-12-01T11:24:37.639296
MEAN_MOTION    = 14.39350672
ECCENTRICITY   = .0032765
INCLINATION    = 98.7912
RA_OF_ASC_NODE = 346.2484
ARG_OF_PERICENTER = 132.4872
MEAN_ANOMALY   = 227.9092

EPHEMERIS_TYPE = 0
CLASSIFICATION_TYPE = U
NORAD_CAT_ID   = 21574
ELEMENT_SET_NO = 999
REV_AT_EPOCH   = 80160
BSTAR          = .14602E-3
MEAN_MOTION_DOT = .41E-5
MEAN_MOTION_DDOT = 0

CCSDS_OMM_VERS = 2.0
CREATION_DATE  = 
ORIGINATOR     = 

OBJECT_NAME    = ARIANE 40 R/B
OBJECT_ID      = 1991-050F
CENTER_NAME    = EARTH
REF_FRAME      = TEME
TIME_SYSTEM    = UTC
MEAN_ELEMENT_THEORY = SGP/SGP4

EPOCH          = 2025-12-01T09:54:52.964928
MEAN_MOTION    = 14.42797776
ECCENTRICITY   = .0003478
INCLINATION    = 98.2182
RA_OF_ASC_NODE = 26.2517
ARG_OF_PERICENTER = 32.0954
MEAN_ANOMALY   = 328.0448

EPHEMERIS_TYPE = 0
CLASSIFICATION_TYPE = U
NORAD_CAT_ID   = 21610
ELEMENT_SET_NO = 999
REV_AT_EPOCH   = 80482
BSTAR          = .14323E-3
MEAN_MOTION_DOT = .436E-5
MEAN_MOTION_DDOT = 0

CCSDS_OMM_VERS = 2.0
CREATION_DATE  = 
ORIGINATOR     = 

OBJECT_NAME    = INTERCOSMOS 25
OBJECT_ID      = 1991-086A
CENTER_NAME    = EARTH
REF_FRAME      = TEME
TIME_SYSTEM    = UTC
MEAN_ELEMENT_THEORY = SGP/SGP4

EPOCH          = 2025-12-01T11:45:05.188032
MEAN_MOTION    = 12.11663565
ECCENTRICITY   = .1487176
INCLINATION    = 82.6068
RA_OF_ASC_NODE = 9.3794
ARG_OF_PERICENTER = 328.6662
MEAN_ANOMALY   = 23.3470

EPHEMERIS_TYPE = 0
CLASSIFICATION_TYPE = U
NORAD_CAT_ID   = 21819
ELEMENT_SET_NO = 999
REV_AT_EPOCH   = 48479
BSTAR          = .53361E-3
MEAN_MOTION_DOT = .2694E-4
MEAN_MOTION_DDOT = 0

CCSDS_OMM_VERS = 2.0
CREATION_DATE  = 
ORIGINATOR     = 

OBJECT_NAME    = SL-8 R/B
OBJECT_ID      = 1992-008B
CENTER_NAME    = EARTH
REF_FRAME      = TEME
TIME_SYSTEM    = UTC
MEAN_ELEMENT_THEORY = SGP/SGP4

EPOCH          = 2025-12-01T11:46:56.586144
MEAN_MOTION    = 13.75955303
ECCENTRICITY   = .003576
INCLINATION    = 82.9264
RA_OF_ASC_NODE = 340.8145
ARG_OF_PERICENTER = 50.5602
MEAN_ANOMALY   = 60.6674

EPHEMERIS_TYPE = 0
CLASSIFICATION_TYPE = U
NORAD_CAT_ID   = 21876
ELEMENT_SET_NO = 999
REV_AT_EPOCH   = 69591
BSTAR          = .16981E-3
MEAN_MOTION_DOT = .181E-5
MEAN_MOTION_DDOT = 0

CCSDS_OMM_VERS = 2.0
CREATION_DATE  = 
ORIGINATOR     = 

OBJECT_NAME    = SL-8 R/B
OBJECT_ID      = 1992-020B
CENTER_NAME    = EARTH
REF_FRAME      = TEME
TIME_SYSTEM    = UTC
MEAN_ELEMENT_THEORY = SGP/SGP4

EPOCH          = 2025-12-01T10:38:40.885728
MEAN_MOTION    = 13.75524537
ECCENTRICITY   = .0028191
INCLINATION    = 82.9314
RA_OF_ASC_NODE = 226.7049
ARG_OF_PERICENTER = 210.1235
MEAN_ANOMALY   = 323.8168

EPHEMERIS_TYPE = 0
CLASSIFICATION_TYPE = U
NORAD_CAT_ID   = 21938
ELEMENT_SET_NO = 999
REV_AT_EPOCH   = 68762
BSTAR          = .54954E-4
MEAN_MOTION_DOT = .68E-6
MEAN_MOTION_DDOT = 0

CCSDS_OMM_VERS = 2.0
CREATION_DATE  = 
ORIGINATOR     = 

OBJECT_NAME    = USA 81
OBJECT_ID      = 1992-023A
CENTER_NAME    = EARTH
REF_FRAME      = TEME
TIME_SYSTEM    = UTC
MEAN_ELEMENT_THEORY = SGP/SGP4

EPOCH          = 2025-12-01T12:10:18.153984
MEAN_MOTION    = 14.32320391
ECCENTRICITY   = .0001922
INCLINATION    = 85.0089
RA_OF_ASC_NODE = 188.0539
ARG_OF_PERICENTER = 63.2462
MEAN_ANOMALY   = 296.8927

EPHEMERIS_TYPE = 0
CLASSIFICATION_TYPE = U
NORAD_CAT_ID   = 21949
ELEMENT_SET_NO = 999
REV_AT_EPOCH   = 8073
BSTAR          = .7426E-4
MEAN_MOTION_DOT = .22E-5
MEAN_MOTION_DDOT = 0

CCSDS_OMM_VERS = 2.0
CREATION_DATE  = 
ORIGINATOR     = 

OBJECT_NAME    = COSMOS 2219
OBJECT_ID      = 1992-076A
CENTER_NAME    = EARTH
REF_FRAME      = TEME
TIME_SYSTEM    = UTC
MEAN_ELEMENT_THEORY = SGP/SGP4

EPOCH          = 2025-12-01T09:45:06.179328
MEAN_MOTION    = 14.14064538
ECCENTRICITY   = .0018791
INCLINATION    = 71.0595
RA_OF_ASC_NODE = 223.5234
ARG_OF_PERICENTER = 342.5367
MEAN_ANOMALY   = 17.5106

EPHEMERIS_TYPE = 0
CLASSIFICATION_TYPE = U
NORAD_CAT_ID   = 22219
ELEMENT_SET_NO = 999
REV_AT_EPOCH   = 70448
BSTAR          = -.10604E-3
MEAN_MOTION_DOT = -.249E-5
MEAN_MOTION_DDOT = 0

CCSDS_OMM_VERS = 2.0
CREATION_DATE  = 
ORIGINATOR     = 

OBJECT_NAME    = SL-16 R/B
OBJECT_ID      = 1992-076B
CENTER_NAME    = EARTH
REF_FRAME      = TEME
TIME_SYSTEM    = UTC
MEAN_ELEMENT_THEORY = SGP/SGP4

EPOCH          = 2025-12-01T11:58:29.681760
MEAN_MOTION    = 14.16840634
ECCENTRICITY   = .0015072
INCLINATION    = 71.0017
RA_OF_ASC_NODE = 35.2104
ARG_OF_PERICENTER = 248.9501
MEAN_ANOMALY   = 209.2644

EPHEMERIS_TYPE = 0
CLASSIFICATION_TYPE = U
NORAD_CAT_ID   = 22220
ELEMENT_SET_NO = 999
REV_AT_EPOCH   = 70792
BSTAR          = .92123E-4
MEAN_MOTION_DOT = .137E-5
MEAN_MOTION_DDOT = 0

CCSDS_OMM_VERS = 2.0
CREATION_DATE  = 
ORIGINATOR     = 

OBJECT_NAME    = COSMOS 2221
OBJECT_ID      = 1992-080A
CENTER_NAME    = EARTH
REF_FRAME      = TEME
TIME_SYSTEM    = UTC
MEAN_ELEMENT_THEORY = SGP/SGP4

EPOCH          = 2025-12-01T04:15:30.098016
MEAN_MOTION    = 14.95691060
ECCENTRICITY   = .0015224
INCLINATION    = 82.5055
RA_OF_ASC_NODE = 13.3921
ARG_OF_PERICENTER = 157.9946
MEAN_ANOMALY   = 202.1933

EPHEMERIS_TYPE = 0
CLASSIFICATION_TYPE = U
NORAD_CAT_ID   = 22236
ELEMENT_SET_NO = 999
REV_AT_EPOCH   = 76606
BSTAR          = .21848E-3
MEAN_MOTION_DOT = .2461E-4
MEAN_MOTION_DDOT = 0

CCSDS_OMM_VERS = 2.0
CREATION_DATE  = 
ORIGINATOR     = 

OBJECT_NAME    = SL-16 R/B
OBJECT_ID      = 1992-093B
CENTER_NAME    = EARTH
REF_FRAME      = TEME
TIME_SYSTEM    = UTC
MEAN_ELEMENT_THEORY = SGP/SGP4

EPOCH          = 2025-12-01T08:47:04.583328
MEAN_MOTION    = 14.15425869
ECCENTRICITY   = .0001945
INCLINATION    = 71.0203
RA_OF_ASC_NODE = 210.6708
ARG_OF_PERICENTER = 106.6321
MEAN_ANOMALY   = 253.5016

EPHEMERIS_TYPE = 0
CLASSIFICATION_TYPE = U
NORAD_CAT_ID   = 22285
ELEMENT_SET_NO = 999
REV_AT_EPOCH   = 69924
BSTAR          = -.76735E-4
MEAN_MOTION_DOT = -.197E-5
MEAN_MOTION_DDOT = 0

